STARLINK-31505          
1 59237U 24049G   26068.41606508  .00001744  00000+0  72801-4 0  9994
2 59237  43.0013 145.1422 0001486 273.5446  86.5236 15.27615839112368
KUIPER-00204            
1 67145U 25301N   26068.39760395  .00020516  00000+0  79568-3 0  9999
2 67145  51.8870  71.6415 0003071 354.8934   5.2016 15.26088400 13737
